{
    "links": {
        "self": "http://www.neowsapp.com/rest/v1/neo/3252105?api_key=iIulBulltgU6a56xZRHN4H3l9WmuAYTsLGpBGhQ2"
    },
    "id": "3252105",
    "neo_reference_id": "3252105",
    "name": "(2004 RG164)",
    "designation": "2004 RG164",
    "nasa_jpl_url": "http://ssd.jpl.nasa.gov/sbdb.cgi?sstr=3252105",
    "absolute_magnitude_h": 25.8,
    "estimated_diameter": {
        "kilometers": {
            "estimated_diameter_min": 0.0183888672,
            "estimated_diameter_max": 0.0411187571
        },
        "meters": {
            "estimated_diameter_min": 18.388867207,
            "estimated_diameter_max": 41.1187571041
        },
        "miles": {
            "estimated_diameter_min": 0.0114263088,
            "estimated_diameter_max": 0.0255500032
        },
        "feet": {
            "estimated_diameter_min": 60.3309310875,
            "estimated_diameter_max": 134.9040630575
        }
    },
    "is_potentially_hazardous_asteroid": false,
    "close_approach_data": [
        {
            "close_approach_date": "1998-06-11",
            "close_approach_date_full": "1998-Jun-11 01:38",
            "epoch_date_close_approach": 897529080000,
            "relative_velocity": {
                "kilometers_per_second": "19.3536117856",
                "kilometers_per_hour": "69673.0024283393",
                "miles_per_hour": "43292.09420332"
            },
            "miss_distance": {
                "astronomical": "0.4433555715",
                "lunar": "172.4653173135",
                "kilometers": "66325049.149032705",
                "miles": "41212474.493373129"
            },
            "orbiting_body": "Earth"
        },
        {
            "close_approach_date": "2000-06-23",
            "close_approach_date_full": "2000-Jun-23 10:22",
            "epoch_date_close_approach": 961755720000,
            "relative_velocity": {
                "kilometers_per_second": "13.0190836146",
                "kilometers_per_hour": "46868.7010127044",
                "miles_per_hour": "29122.3881375884"
            },
            "miss_distance": {
                "astronomical": "0.2281083103",
                "lunar": "88.7341327067",
                "kilometers": "34124517.350179061",
                "miles": "21203991.8392346018"
            },
            "orbiting_body": "Earth"
        },
        {
            "close_approach_date": "2004-09-09",
            "close_approach_date_full": "2004-Sep-09 16:28",
            "epoch_date_close_approach": 1094747280000,
            "relative_velocity": {
                "kilometers_per_second": "6.5386665572",
                "kilometers_per_hour": "23539.1996060377",
                "miles_per_hour": "14626.3432218738"
            },
            "miss_distance": {
                "astronomical": "0.0205498093",
                "lunar": "7.9938758177",
                "kilometers": "3074207.700186191",
                "miles": "1910224.0866277958"
            },
            "orbiting_body": "Earth"
        },
        {
            "close_approach_date": "2006-10-05",
            "close_approach_date_full": "2006-Oct-05 17:26",
            "epoch_date_close_approach": 1160069160000,
            "relative_velocity": {
                "kilometers_per_second": "13.707294414",
                "kilometers_per_hour": "49346.2598904403",
                "miles_per_hour": "30661.8468747017"
            },
            "miss_distance": {
                "astronomical": "0.2489504304",
                "lunar": "96.8417174256",
                "kilometers": "37242454.123423248",
                "miles": "23141387.9118789024"
            },
            "orbiting_body": "Earth"
        },
        {
            "close_approach_date": "2008-10-18",
            "close_approach_date_full": "2008-Oct-18 20:20",
            "epoch_date_close_approach": 1224361200000,
            "relative_velocity": {
                "kilometers_per_second": "21.0835044701",
                "kilometers_per_hour": "75900.616092427",
                "miles_per_hour": "47161.6911492083"
            },
            "miss_distance": {
                "astronomical": "0.4986526459",
                "lunar": "193.9758792551",
                "kilometers": "74597373.696504233",
                "miles": "46352658.6136670954"
            },
            "orbiting_body": "Earth"
        }
    ],
    "orbital_data": {
        "orbit_id": "11",
        "orbit_determination_date": "2017-04-06 09:12:18",
        "first_observation_date": "2004-09-10",
        "last_observation_date": "2004-10-05",
        "data_arc_in_days": 25,
        "observations_used": 59,
        "orbit_uncertainty": "8",
        "minimum_orbit_intersection": ".0065734",
        "jupiter_tisserand_invariant": "4.264",
        "epoch_osculation": "2453266.5",
        "eccentricity": ".3781627483576018",
        "semi_major_axis": "1.608557411531225",
        "inclination": "1.276282721296374",
        "ascending_node_longitude": "176.1211807689277",
        "orbital_period": "745.1664203964751",
        "perihelion_distance": "1.000260919895587",
        "perihelion_argument": "147.8061985872359",
        "aphelion_distance": "2.216853903166863",
        "perihelion_time": "2453238.415935078596",
        "mean_anomaly": "13.56779250241328",
        "mean_motion": ".4831135571144732",
        "equinox": "J2000",
        "orbit_class": {
            "orbit_class_type": "APO",
            "orbit_class_description": "Near-Earth asteroid orbits which cross the Earth’s orbit similar to that of 1862 Apollo",
            "orbit_class_range": "a (semi-major axis) > 1.0 AU; q (perihelion) < 1.017 AU"
        }
    },
    "is_sentry_object": false
}